TIANZHOU-10             
1 69049U 26102A   26160.23389516  .00019782  00000+0  23663-3 0  9990
2 69049  41.4695  10.3915 0008414  13.9110 346.1959 15.60473761  4607
QIANFAN-127             
1 69073U 26104A   26160.10750612 -.02113799  00000+0 -12115+1 0  9998
2 69073  88.9852 342.5242 0005399 156.0159 204.1280 14.13752395  3945
QIANFAN-128             
1 69074U 26104B   26160.45441172  .00000192  00000+0  92582-4 0  9993
2 69074  88.9864 342.5020 0004298 118.5341 241.6279 14.14535279  3985
QIANFAN-129             
1 69075U 26104C   26159.98689381 -.02047900  00000+0 -10873+1 0  9997
2 69075  88.9855 342.5251 0004452 176.3994 183.7228 14.17755179  3931
QIANFAN-130             
1 69076U 26104D   26160.01527477 -.00000277  00000+0 -15020-3 0  9997
2 69076  88.9864 342.5477 0004910 111.0426 249.1287 14.15164142  3920
QIANFAN-131             
1 69077U 26104E   26160.05452719 -.00000222  00000+0 -11757-3 0  9991
2 69077  88.9862 342.5346 0004056 125.3992 234.7576 14.17061345  3936
QIANFAN-132             
1 69078U 26104F   26159.95604777 -.02034943  00000+0 -12451+1 0  9990
2 69078  88.9854 342.5584 0010187  97.6432 262.5910 14.09996454  3912
QIANFAN-133             
1 69079U 26104G   26160.08025393 -.02086917  00000+0 -12360+1 0  9995
2 69079  88.9856 342.5389 0004725  73.6418 286.5287 14.11911140  3934
QIANFAN-134             
1 69080U 26104H   26159.93266251 -.01995427  00000+0 -12024+1 0  9990
2 69080  88.9855 342.5566 0010434  95.2360 265.0016 14.10753831  3912
QIANFAN-135             
1 69081U 26104J   26160.06835328 -.02059206  00000+0 -12117+1 0  9994
2 69081  88.9854 342.5374 0004777 101.3187 258.8536 14.12209103  3937
QIANFAN-136             
1 69082U 26104K   26159.99318281 -.02089592  00000+0 -12036+1 0  9990
2 69082  88.9858 342.5444 0004156 165.2876 194.8432 14.13434397  3924
QIANFAN-137             
1 69083U 26104L   26160.41193725  .00000104  00000+0  38060-4 0  9991
2 69083  88.9862 342.4760 0005702 128.0802 232.0906 14.24908245  3992
QIANFAN-138             
1 69084U 26104M   26160.04937531 -.01859999  00000+0 -10935+1 0  9996
2 69084  88.9856 342.5337 0009240 105.7259 254.4946 14.11834947  3935
QIANFAN-139             
1 69085U 26104N   26160.04434418 -.01958891  00000+0 -11463+1 0  9991
2 69085  88.9854 342.5335 0008433 111.6187 248.5898 14.12292597  3931
QIANFAN-140             
1 69086U 26104P   26160.03913723 -.01963645  00000+0 -11351+1 0  9991
2 69086  88.9853 342.5322 0007126 118.5292 241.6612 14.12972468  3938
QIANFAN-141             
1 69087U 26104Q   26159.96361484 -.01994995  00000+0 -11402+1 0  9992
2 69087  88.9857 342.5402 0004376 138.6253 221.5266 14.13664996  3922
QIANFAN-142             
1 69088U 26104R   26160.02776983 -.01912657  00000+0 -10821+1 0  9995
2 69088  88.9849 342.5307 0005657 139.7837 220.3769 14.14042332  3932
QIANFAN-143             
1 69089U 26104S   26160.08426418 -.02048812  00000+0 -11316+1 0  9991
2 69089  88.9852 342.5207 0006293 171.8378 188.2913 14.15623126  3941
QIANFAN-144             
1 69090U 26104T   26160.02009002 -.01822342  00000+0 -10335+1 0  9990
2 69090  88.9857 342.5305 0006342 134.5074 225.6632 14.13724936  3933
ZHUQUE-2E R/B           
1 69095U 26105A   26160.21442980  .00146646 -68726-6  35948-3 0  9993
2 69095  88.9716 195.3543 0456135 328.9200  28.5762 15.15173567  3945
2026-106A               
1 69097U 26106A   26155.63137572  .00009052  00000+0  54389-3 0  9996
2 69097  97.5095 237.9435 0013466 203.5034 156.5582 15.11037132  3085
2026-106B               
1 69098U 26106B   26155.63675397  .00006796  00000+0  42602-3 0  9996
2 69098  97.5082 237.9319 0014266 199.5733 160.4950 15.09575067  3086
2026-106C               
1 69099U 26106C   26155.63084001  .00008876  00000+0  53278-3 0  9995
2 69099  97.5097 237.9445 0013554 204.3760 155.6830 15.11076088  3082
2026-106D               
1 69100U 26106D   26155.62912235  .00008260  00000+0  49447-3 0  9996
2 69100  97.5062 237.9411 0013122 207.0214 153.0334 15.11202473  3085
2026-106E               
1 69101U 26106E   26155.62529263  .00009128  00000+0  54175-3 0  9990
2 69101  97.5073 237.9468 0015124 208.9127 151.1267 15.11460406  3083
DRAGON CRS-34           
1 69103U 26107A   26160.51346514  .00007341  00000+0  13794-3 0  9990
2 69103  51.6332 338.0748 0006877 150.8507 209.2867 15.49683556570602
QIANFAN-145             
1 69104U 26108A   26159.86228284 -.02108513  00000+0 -12354+1 0  9996
2 69104  89.0114  23.1478 0016678 130.8066 229.4569 14.12475911  3164
QIANFAN-146             
1 69105U 26108B   26160.06758804 -.01840466  00000+0 -99342+0 0  9997
2 69105  89.0116  23.1052 0014511 154.3785 205.8126 14.16392185  3205
